{"type": "FeatureCollection", "features": [ {"type": "Feature", "properties": {"norad_id": 66353, "name": "STARLINK-35869", "group": "last-30-days", "lat": 42.970907948400026, "lon": 102.49827042480229, "alt_km": 357.2225850545901, "timestamp": "2025-12-02T07:10:07.864994+00:00", "meta": {"OBJECT_NAME": "STARLINK-35869", "OBJECT_ID": "2025-254F", "EPOCH": "2025-12-01T20:00:01.999008", "MEAN_MOTION": 15.70293992, "ECCENTRICITY": 0.0001001, "INCLINATION": 53.1591, "RA_OF_ASC_NODE": 329.0939, "ARG_OF_PERICENTER": 87.5281, "MEAN_ANOMALY": 283.5032, "EPHEMERIS_TYPE": 0, "CLASSIFICATION_TYPE": "U", "NORAD_CAT_ID": 66353, "ELEMENT_SET_NO": 999, "REV_AT_EPOCH": 517, "BSTAR": -0.017625, "MEAN_MOTION_DOT": -0.01937852, "MEAN_MOTION_DDOT": 0}, "tle": {"line1": "1 66353U 25254F   25335.83335647 -.01937852  00000+0 -17625-1 0  9996", "line2": "2 66353  53.1591 329.0939 0001001  87.5281 283.5032 15.70293992  5170"}}, "geometry": {"type": "Point", "coordinates": [102.49827042480229, 42.970907948400026]}}, {"type": "Feature", "properties": {"norad_id": 66354, "name": "STARLINK-35895", "group": "last-30-days", "lat": 10.654071143514281, "lon": -24.872660112825503, "alt_km": 401.5706872608507, "timestamp": "2025-12-02T07:10:07.865017+00:00", "meta": {"OBJECT_NAME": "STARLINK-35895", "OBJECT_ID": "2025-254G", "EPOCH": "2025-12-01T20:00:01.999008", "MEAN_MOTION": 15.57394144, "ECCENTRICITY": 0.000134, "INCLINATION": 53.1595, "RA_OF_ASC_NODE": 329.2677, "ARG_OF_PERICENTER": 99.0604, "MEAN_ANOMALY": 186.0049, "EPHEMERIS_TYPE": 0, "CLASSIFICATION_TYPE": "U", "NORAD_CAT_ID": 66354, "ELEMENT_SET_NO": 999, "REV_AT_EPOCH": 517, "BSTAR": -0.037283, "MEAN_MOTION_DOT": -0.02428069, "MEAN_MOTION_DDOT": 0}, "tle": {"line1": "1 66354U 25254G   25335.83335647 -.02428069  00000+0 -37283-1 0  9995", "line2": "2 66354  53.1595 329.2677 0001340  99.0604 186.0049 15.57394144  5170"}}, "geometry": {"type": "Point", "coordinates": [-24.872660112825503, 10.654071143514281]}}, {"type": "Feature", "properties": {"norad_id": 66355, "name": "STARLINK-35861", "group": "last-30-days", "lat": 40.696574262903376, "lon": 106.64042253980149, "alt_km": 357.57780726954024, "timestamp": "2025-12-02T07:10:07.865036+00:00", "meta": {"OBJECT_NAME": "STARLINK-35861", "OBJECT_ID": "2025-254H", "EPOCH": "2025-12-01T20:00:01.999008", "MEAN_MOTION": 15.70323973, "ECCENTRICITY": 9.2e-05, "INCLINATION": 53.1588, "RA_OF_ASC_NODE": 329.0858, "ARG_OF_PERICENTER": 94.7209, "MEAN_ANOMALY": 280.1283, "EPHEMERIS_TYPE": 0, "CLASSIFICATION_TYPE": "U", "NORAD_CAT_ID": 66355, "ELEMENT_SET_NO": 999, "REV_AT_EPOCH": 517, "BSTAR": -0.017966, "MEAN_MOTION_DOT": -0.01973102, "MEAN_MOTION_DDOT": 0}, "tle": {"line1": "1 66355U 25254H   25335.83335647 -.01973102  00000+0 -17966-1 0  9994", "line2": "2 66355  53.1588 329.0858 0000920  94.7209 280.1283 15.70323973  5171"}}, "geometry": {"type": "Point", "coordinates": [106.64042253980149, 40.696574262903376]}}, {"type": "Feature", "properties": {"norad_id": 66356, "name": "STARLINK-35851", "group": "last-30-days", "lat": 39.50593217841549, "lon": 108.60401329717664, "alt_km": 357.7686379855422, "timestamp": "2025-12-02T07:10:07.865055+00:00", "meta": {"OBJECT_NAME": "STARLINK-35851", "OBJECT_ID": "2025-254J", "EPOCH": "2025-12-01T20:00:01.999008", "MEAN_MOTION": 15.70318642, "ECCENTRICITY": 8.96e-05, "INCLINATION": 53.1588, "RA_OF_ASC_NODE": 329.0811, "ARG_OF_PERICENTER": 96.6231, "MEAN_ANOMALY": 280.1441, "EPHEMERIS_TYPE": 0, "CLASSIFICATION_TYPE": "U", "NORAD_CAT_ID": 66356, "ELEMENT_SET_NO": 999, "REV_AT_EPOCH": 517, "BSTAR": -0.017885, "MEAN_MOTION_DOT": -0.0196484, "MEAN_MOTION_DDOT": 0}, "tle": {"line1": "1 66356U 25254J   25335.83335647 -.01964840  00000+0 -17885-1 0  9994", "line2": "2 66356  53.1588 329.0811 0000896  96.6231 280.1441 15.70318642  5172"}}, "geometry": {"type": "Point", "coordinates": [108.60401329717664, 39.50593217841549]}}, {"type": "Feature", "properties": {"norad_id": 66357, "name": "STARLINK-35817", "group": "last-30-days", "lat": 38.28328240293531, "lon": 110.50124833320423, "alt_km": 357.9173968562809, "timestamp": "2025-12-02T07:10:07.865072+00:00", "meta": {"OBJECT_NAME": "STARLINK-35817", "OBJECT_ID": "2025-254K", "EPOCH": "2025-12-01T20:00:01.999008", "MEAN_MOTION": 15.70322216, "ECCENTRICITY": 9.63e-05, "INCLINATION": 53.159, "RA_OF_ASC_NODE": 329.077, "ARG_OF_PERICENTER": 99.0495, "MEAN_ANOMALY": 279.6318, "EPHEMERIS_TYPE": 0, "CLASSIFICATION_TYPE": "U", "NORAD_CAT_ID": 66357, "ELEMENT_SET_NO": 999, "REV_AT_EPOCH": 517, "BSTAR": -0.01792, "MEAN_MOTION_DOT": -0.01968602, "MEAN_MOTION_DDOT": 0}, "tle": {"line1": "1 66357U 25254K   25335.83335647 -.01968602  00000+0 -17920-1 0  9995", "line2": "2 66357  53.1590 329.0770 0000963  99.0495 279.6318 15.70322216  5172"}}, "geometry": {"type": "Point", "coordinates": [110.50124833320423, 38.28328240293531]}}, {"type": "Feature", "properties": {"norad_id": 66358, "name": "STARLINK-35807", "group": "last-30-days", "lat": 37.03287986667604, "lon": 112.33164275039061, "alt_km": 358.17274897546486, "timestamp": "2025-12-02T07:10:07.865097+00:00", "meta": {"OBJECT_NAME": "STARLINK-35807", "OBJECT_ID": "2025-254L", "EPOCH": "2025-12-01T20:00:01.999008", "MEAN_MOTION": 15.70302413, "ECCENTRICITY": 8.05e-05, "INCLINATION": 53.159, "RA_OF_ASC_NODE": 329.0728, "ARG_OF_PERICENTER": 108.2587, "MEAN_ANOMALY": 272.3514, "EPHEMERIS_TYPE": 0, "CLASSIFICATION_TYPE": "U", "NORAD_CAT_ID": 66358, "ELEMENT_SET_NO": 999, "REV_AT_EPOCH": 517, "BSTAR": -0.017708, "MEAN_MOTION_DOT": -0.01946419, "MEAN_MOTION_DDOT": 0}, "tle": {"line1": "1 66358U 25254L   25335.83335647 -.01946419  00000+0 -17708-1 0  9992", "line2": "2 66358  53.1590 329.0728 0000805 108.2587 272.3514 15.70302413  5171"}}, "geometry": {"type": "Point", "coordinates": [112.33164275039061, 37.03287986667604]}}, {"type": "Feature", "properties": {"norad_id": 66359, "name": "STARLINK-35805", "group": "last-30-days", "lat": 35.75025064823356, "lon": 114.1088384489057, "alt_km": 358.34612572444166, "timestamp": "2025-12-02T07:10:07.865116+00:00", "meta": {"OBJECT_NAME": "STARLINK-35805", "OBJECT_ID": "2025-254M", "EPOCH": "2025-12-01T20:00:01.999008", "MEAN_MOTION": 15.70319973, "ECCENTRICITY": 9.91e-05, "INCLINATION": 53.1587, "RA_OF_ASC_NODE": 329.0693, "ARG_OF_PERICENTER": 96.3868, "MEAN_ANOMALY": 286.1279, "EPHEMERIS_TYPE": 0, "CLASSIFICATION_TYPE": "U", "NORAD_CAT_ID": 66359, "ELEMENT_SET_NO": 999, "REV_AT_EPOCH": 514, "BSTAR": -0.017885, "MEAN_MOTION_DOT": -0.01965003, "MEAN_MOTION_DDOT": 0}, "tle": {"line1": "1 66359U 25254M   25335.83335647 -.01965003  00000+0 -17885-1 0  9999", "line2": "2 66359  53.1587 329.0693 0000991  96.3868 286.1279 15.70319973  5141"}}, "geometry": {"type": "Point", "coordinates": [114.1088384489057, 35.75025064823356]}}, {"type": "Feature", "properties": {"norad_id": 66360, "name": "STARLINK-35823", "group": "last-30-days", "lat": 33.11430954477463, "lon": 117.49008028658992, "alt_km": 358.93625074326883, "timestamp": "2025-12-02T07:10:07.865135+00:00", "meta": {"OBJECT_NAME": "STARLINK-35823", "OBJECT_ID": "2025-254N", "EPOCH": "2025-12-01T20:00:01.999008", "MEAN_MOTION": 15.70360735, "ECCENTRICITY": 0.0001079, "INCLINATION": 53.1585, "RA_OF_ASC_NODE": 329.0606, "ARG_OF_PERICENTER": 90.205, "MEAN_ANOMALY": 296.137, "EPHEMERIS_TYPE": 0, "CLASSIFICATION_TYPE": "U", "NORAD_CAT_ID": 66360, "ELEMENT_SET_NO": 999, "REV_AT_EPOCH": 517, "BSTAR": -0.01853, "MEAN_MOTION_DOT": -0.02030497, "MEAN_MOTION_DDOT": 0}, "tle": {"line1": "1 66360U 25254N   25335.83335647 -.02030497  00000+0 -18530-1 0  9990", "line2": "2 66360  53.1585 329.0606 0001079  90.2050 296.1370 15.70360735  5177"}}, "geometry": {"type": "Point", "coordinates": [117.49008028658992, 33.11430954477463]}}, {"type": "Feature", "properties": {"norad_id": 66361, "name": "STARLINK-35813", "group": "last-30-days", "lat": 34.44438854899963, "lon": 115.82634545579873, "alt_km": 358.6302961492256, "timestamp": "2025-12-02T07:10:07.865154+00:00", "meta": {"OBJECT_NAME": "STARLINK-35813", "OBJECT_ID": "2025-254P", "EPOCH": "2025-12-01T20:00:01.999008", "MEAN_MOTION": 15.70318563, "ECCENTRICITY": 0.0001055, "INCLINATION": 53.1587, "RA_OF_ASC_NODE": 329.0655, "ARG_OF_PERICENTER": 90.5647, "MEAN_ANOMALY": 293.8659, "EPHEMERIS_TYPE": 0, "CLASSIFICATION_TYPE": "U", "NORAD_CAT_ID": 66361, "ELEMENT_SET_NO": 999, "REV_AT_EPOCH": 517, "BSTAR": -0.017869, "MEAN_MOTION_DOT": -0.01963407, "MEAN_MOTION_DDOT": 0}, "tle": {"line1": "1 66361U 25254P   25335.83335647 -.01963407  00000+0 -17869-1 0  9990", "line2": "2 66361  53.1587 329.0655 0001055  90.5647 293.8659 15.70318563  5179"}}, "geometry": {"type": "Point", "coordinates": [115.82634545579873, 34.44438854899963]}}, {"type": "Feature", "properties": {"norad_id": 66362, "name": "STARLINK-35822", "group": "last-30-days", "lat": 30.396143045848067, "lon": 120.66798924582775, "alt_km": 359.33408791217516, "timestamp": "2025-12-02T07:10:07.865165+00:00", "meta": {"OBJECT_NAME": "STARLINK-35822", "OBJECT_ID": "2025-254Q", "EPOCH": "2025-12-01T20:00:01.999008", "MEAN_MOTION": 15.70320088, "ECCENTRICITY": 9.3e-05, "INCLINATION": 53.1591, "RA_OF_ASC_NODE": 329.053, "ARG_OF_PERICENTER": 94.94, "MEAN_ANOMALY": 295.2443, "EPHEMERIS_TYPE": 0, "CLASSIFICATION_TYPE": "U", "NORAD_CAT_ID": 66362, "ELEMENT_SET_NO": 999, "REV_AT_EPOCH": 517, "BSTAR": -0.017903, "MEAN_MOTION_DOT": -0.01966719, "MEAN_MOTION_DDOT": 0}, "tle": {"line1": "1 66362U 25254Q   25335.83335647 -.01966719  00000+0 -17903-1 0  9999", "line2": "2 66362  53.1591 329.0530 0000930  94.9400 295.2443 15.70320088  5175"}}, "geometry": {"type": "Point", "coordinates": [120.66798924582775, 30.396143045848067]}}]}